IRIDIUM 39              
1 25042U 97069D   26008.03989220  .00000768  00000+0  19458-3 0  9993
2 25042  86.3933 123.3539 0017004 348.5899  11.4917 14.49554564478639
IRIDIUM 38              
1 25043U 97069E   26008.13583727  .00000529  00000+0  16746-3 0  9999
2 25043  86.3992 147.0098 0003532 119.7426 240.4124 14.38346739475411
IRIDIUM 42              
1 25077U 97077A   26008.11609833  .00000444  00000+0  14438-3 0  9992
2 25077  86.3996 153.4393 0002343 112.0478 248.0968 14.36561230470613
IRIDIUM 44              
1 25078U 97077B   26008.07268943  .00000417  00000+0  12514-3 0  9994
2 25078  86.3988 134.8447 0003844  84.6802 275.4836 14.40459364473193
IRIDIUM 45              
1 25104U 97082A   26007.86494885  .00024668  00000+0  67043-3 0  9993
2 25104  86.3558 307.7870 0091043 280.0762  79.0226 15.33235662483279
IRIDIUM 24              
1 25105U 97082B   26008.19567896  .00000537  00000+0  15642-3 0  9991
2 25105  86.3917 353.3244 0013261 115.5176 244.7397 14.42360591472769
IRIDIUM 51              
1 25262U 98018A   26008.11783645  .00126460  00000+0  10363-2 0  9997
2 25262  86.3724 312.6399 0047325 161.6932 198.6056 15.68598236478772
IRIDIUM 57              
1 25273U 98019B   26008.18045913  .00000337  00000+0  10917-3 0  9996
2 25273  86.3931  59.2964 0002317  94.6289 265.5172 14.36074353454206
